{"type": "FeatureCollection", "features": [ {"type": "Feature", "properties": {"norad_id": 33841, "name": "COSMOS 2251 DEB", "group": "cosmos-2251-debris", "lat": -23.611799531856537, "lon": -82.06942399755418, "alt_km": 758.2354808376176, "timestamp": "2025-12-08T21:31:05.059260+00:00", "meta": {"OBJECT_NAME": "COSMOS 2251 DEB", "OBJECT_ID": "1993-036CJ", "EPOCH": "2025-12-08T07:18:22.022784", "MEAN_MOTION": 14.37850802, "ECCENTRICITY": 0.00203444, "INCLINATION": 74.0376, "RA_OF_ASC_NODE": 286.2079, "ARG_OF_PERICENTER": 7.5955, "MEAN_ANOMALY": 144.0444, "EPHEMERIS_TYPE": 0, "CLASSIFICATION_TYPE": "U", "NORAD_CAT_ID": 33841, "ELEMENT_SET_NO": 999, "REV_AT_EPOCH": 88050, "BSTAR": 0.00048397214, "MEAN_MOTION_DOT": 1.437e-05, "MEAN_MOTION_DDOT": 0}, "tle": {"line1": "1 33841U 93036CJ  25342.30442156  .00001437  00000+0  48397-3 0  9999", "line2": "2 33841  74.0376 286.2079 0020344   7.5955 144.0444 14.37850802880506"}}, "geometry": {"type": "Point", "coordinates": [-82.06942399755418, -23.611799531856537]}}, {"type": "Feature", "properties": {"norad_id": 33842, "name": "COSMOS 2251 DEB", "group": "cosmos-2251-debris", "lat": 15.828373318164621, "lon": 42.129606697421735, "alt_km": 783.2275673282329, "timestamp": "2025-12-08T21:31:05.059271+00:00", "meta": {"OBJECT_NAME": "COSMOS 2251 DEB", "OBJECT_ID": "1993-036CK", "EPOCH": "2025-12-08T09:06:43.656480", "MEAN_MOTION": 14.42684679, "ECCENTRICITY": 0.00471614, "INCLINATION": 74.0334, "RA_OF_ASC_NODE": 227.7444, "ARG_OF_PERICENTER": 335.9437, "MEAN_ANOMALY": 23.9516, "EPHEMERIS_TYPE": 0, "CLASSIFICATION_TYPE": "U", "NORAD_CAT_ID": 33842, "ELEMENT_SET_NO": 999, "REV_AT_EPOCH": 88274, "BSTAR": 0.00058460308, "MEAN_MOTION_DOT": 1.944e-05, "MEAN_MOTION_DDOT": 0}, "tle": {"line1": "1 33842U 93036CK  25342.37967195  .00001944  00000+0  58460-3 0  9997", "line2": "2 33842  74.0334 227.7444 0047161 335.9437  23.9516 14.42684679882742"}}, "geometry": {"type": "Point", "coordinates": [42.129606697421735, 15.828373318164621]}}, {"type": "Feature", "properties": {"norad_id": 33844, "name": "COSMOS 2251 DEB", "group": "cosmos-2251-debris", "lat": -36.954702940668405, "lon": -107.79497403742391, "alt_km": 809.3814152234718, "timestamp": "2025-12-08T21:31:05.059281+00:00", "meta": {"OBJECT_NAME": "COSMOS 2251 DEB", "OBJECT_ID": "1993-036CM", "EPOCH": "2025-12-08T14:19:00.435648", "MEAN_MOTION": 14.33703798, "ECCENTRICITY": 0.00470923, "INCLINATION": 74.0672, "RA_OF_ASC_NODE": 60.3425, "ARG_OF_PERICENTER": 83.6232, "MEAN_ANOMALY": 26.5481, "EPHEMERIS_TYPE": 0, "CLASSIFICATION_TYPE": "U", "NORAD_CAT_ID": 33844, "ELEMENT_SET_NO": 999, "REV_AT_EPOCH": 87666, "BSTAR": 0.00072496166, "MEAN_MOTION_DOT": 2.012e-05, "MEAN_MOTION_DDOT": 0}, "tle": {"line1": "1 33844U 93036CM  25342.59653282  .00002012  00000+0  72496-3 0  9994", "line2": "2 33844  74.0672  60.3425 0047092  83.6232  26.5481 14.33703798876660"}}, "geometry": {"type": "Point", "coordinates": [-107.79497403742391, -36.954702940668405]}}, {"type": "Feature", "properties": {"norad_id": 33848, "name": "COSMOS 2251 DEB", "group": "cosmos-2251-debris", "lat": -67.94878697694556, "lon": -130.22558797804743, "alt_km": 780.636249454571, "timestamp": "2025-12-08T21:31:05.059292+00:00", "meta": {"OBJECT_NAME": "COSMOS 2251 DEB", "OBJECT_ID": "1993-036CR", "EPOCH": "2025-12-08T12:35:16.311840", "MEAN_MOTION": 14.440187, "ECCENTRICITY": 0.00409837, "INCLINATION": 74.0319, "RA_OF_ASC_NODE": 5.4855, "ARG_OF_PERICENTER": 62.769, "MEAN_ANOMALY": 58.3725, "EPHEMERIS_TYPE": 0, "CLASSIFICATION_TYPE": "U", "NORAD_CAT_ID": 33848, "ELEMENT_SET_NO": 999, "REV_AT_EPOCH": 87770, "BSTAR": 0.0014959518, "MEAN_MOTION_DOT": 5.145e-05, "MEAN_MOTION_DDOT": 0}, "tle": {"line1": "1 33848U 93036CR  25342.52449435  .00005145  00000+0  14960-2 0  9995", "line2": "2 33848  74.0319   5.4855 0040983  62.7690  58.3725 14.44018700877701"}}, "geometry": {"type": "Point", "coordinates": [-130.22558797804743, -67.94878697694556]}}, {"type": "Feature", "properties": {"norad_id": 33892, "name": "COSMOS 2251 DEB", "group": "cosmos-2251-debris", "lat": 68.43445236129075, "lon": -118.27178083770723, "alt_km": 741.4707654849635, "timestamp": "2025-12-08T21:31:05.059302+00:00", "meta": {"OBJECT_NAME": "COSMOS 2251 DEB", "OBJECT_ID": "1993-036CV", "EPOCH": "2025-12-08T11:13:27.003360", "MEAN_MOTION": 14.23311863, "ECCENTRICITY": 0.01132179, "INCLINATION": 73.8032, "RA_OF_ASC_NODE": 109.8509, "ARG_OF_PERICENTER": 141.8944, "MEAN_ANOMALY": 286.4122, "EPHEMERIS_TYPE": 0, "CLASSIFICATION_TYPE": "U", "NORAD_CAT_ID": 33892, "ELEMENT_SET_NO": 999, "REV_AT_EPOCH": 86894, "BSTAR": 0.0015664778, "MEAN_MOTION_DOT": 3.767e-05, "MEAN_MOTION_DDOT": 0}, "tle": {"line1": "1 33892U 93036CV  25342.46767365  .00003767  00000+0  15665-2 0  9993", "line2": "2 33892  73.8032 109.8509 0113217 141.8944 286.4122 14.23311863868940"}}, "geometry": {"type": "Point", "coordinates": [-118.27178083770723, 68.43445236129075]}}, {"type": "Feature", "properties": {"norad_id": 33894, "name": "COSMOS 2251 DEB", "group": "cosmos-2251-debris", "lat": -6.575381061059461, "lon": -6.897389613881271, "alt_km": 1070.4717086006985, "timestamp": "2025-12-08T21:31:05.059312+00:00", "meta": {"OBJECT_NAME": "COSMOS 2251 DEB", "OBJECT_ID": "1993-036CX", "EPOCH": "2025-12-08T10:38:58.588224", "MEAN_MOTION": 13.21283258, "ECCENTRICITY": 0.05795731, "INCLINATION": 73.7668, "RA_OF_ASC_NODE": 355.7273, "ARG_OF_PERICENTER": 275.6874, "MEAN_ANOMALY": 77.844, "EPHEMERIS_TYPE": 0, "CLASSIFICATION_TYPE": "U", "NORAD_CAT_ID": 33894, "ELEMENT_SET_NO": 999, "REV_AT_EPOCH": 80651, "BSTAR": 0.0026326972, "MEAN_MOTION_DOT": 2.6e-05, "MEAN_MOTION_DDOT": 0}, "tle": {"line1": "1 33894U 93036CX  25342.44373366  .00002600  00000+0  26327-2 0  9999", "line2": "2 33894  73.7668 355.7273 0579573 275.6874  77.8440 13.21283258806518"}}, "geometry": {"type": "Point", "coordinates": [-6.897389613881271, -6.575381061059461]}}, {"type": "Feature", "properties": {"norad_id": 33896, "name": "COSMOS 2251 DEB", "group": "cosmos-2251-debris", "lat": -49.450217108287454, "lon": 3.5695279635900308, "alt_km": 861.8136333512248, "timestamp": "2025-12-08T21:31:05.059323+00:00", "meta": {"OBJECT_NAME": "COSMOS 2251 DEB", "OBJECT_ID": "1993-036CZ", "EPOCH": "2025-12-08T15:41:05.467200", "MEAN_MOTION": 14.19023147, "ECCENTRICITY": 0.01262782, "INCLINATION": 73.766, "RA_OF_ASC_NODE": 164.1012, "ARG_OF_PERICENTER": 340.4475, "MEAN_ANOMALY": 92.0395, "EPHEMERIS_TYPE": 0, "CLASSIFICATION_TYPE": "U", "NORAD_CAT_ID": 33896, "ELEMENT_SET_NO": 999, "REV_AT_EPOCH": 86682, "BSTAR": 0.00091823771, "MEAN_MOTION_DOT": 2.048e-05, "MEAN_MOTION_DDOT": 0}, "tle": {"line1": "1 33896U 93036CZ  25342.65353550  .00002048  00000+0  91824-3 0  9998", "line2": "2 33896  73.7660 164.1012 0126278 340.4475  92.0395 14.19023147866828"}}, "geometry": {"type": "Point", "coordinates": [3.5695279635900308, -49.450217108287454]}}, {"type": "Feature", "properties": {"norad_id": 33899, "name": "COSMOS 2251 DEB", "group": "cosmos-2251-debris", "lat": 29.185618206224728, "lon": 102.2551332550698, "alt_km": 711.5666064992438, "timestamp": "2025-12-08T21:31:05.059333+00:00", "meta": {"OBJECT_NAME": "COSMOS 2251 DEB", "OBJECT_ID": "1993-036DC", "EPOCH": "2025-12-08T10:13:34.315104", "MEAN_MOTION": 14.61119284, "ECCENTRICITY": 0.00572227, "INCLINATION": 74.0543, "RA_OF_ASC_NODE": 93.964, "ARG_OF_PERICENTER": 157.8536, "MEAN_ANOMALY": 279.4455, "EPHEMERIS_TYPE": 0, "CLASSIFICATION_TYPE": "U", "NORAD_CAT_ID": 33899, "ELEMENT_SET_NO": 999, "REV_AT_EPOCH": 88776, "BSTAR": 0.0015609411, "MEAN_MOTION_DOT": 7.835e-05, "MEAN_MOTION_DDOT": 0}, "tle": {"line1": "1 33899U 93036DC  25342.42609161  .00007835  00000+0  15609-2 0  9993", "line2": "2 33899  74.0543  93.9640 0057222 157.8536 279.4455 14.61119284887760"}}, "geometry": {"type": "Point", "coordinates": [102.2551332550698, 29.185618206224728]}}, {"type": "Feature", "properties": {"norad_id": 33900, "name": "COSMOS 2251 DEB", "group": "cosmos-2251-debris", "lat": 68.15164093222732, "lon": 141.56472919775086, "alt_km": 672.5445556238583, "timestamp": "2025-12-08T21:31:05.059343+00:00", "meta": {"OBJECT_NAME": "COSMOS 2251 DEB", "OBJECT_ID": "1993-036DD", "EPOCH": "2025-12-08T11:41:49.246656", "MEAN_MOTION": 14.58324501, "ECCENTRICITY": 0.00470646, "INCLINATION": 74.0192, "RA_OF_ASC_NODE": 7.9651, "ARG_OF_PERICENTER": 161.2723, "MEAN_ANOMALY": 316.7652, "EPHEMERIS_TYPE": 0, "CLASSIFICATION_TYPE": "U", "NORAD_CAT_ID": 33900, "ELEMENT_SET_NO": 999, "REV_AT_EPOCH": 88974, "BSTAR": 0.00066010641, "MEAN_MOTION_DOT": 3.072e-05, "MEAN_MOTION_DDOT": 0}, "tle": {"line1": "1 33900U 93036DD  25342.48737554  .00003072  00000+0  66011-3 0  9993", "line2": "2 33900  74.0192   7.9651 0047064 161.2723 316.7652 14.58324501889740"}}, "geometry": {"type": "Point", "coordinates": [141.56472919775086, 68.15164093222732]}}, {"type": "Feature", "properties": {"norad_id": 33901, "name": "COSMOS 2251 DEB", "group": "cosmos-2251-debris", "lat": 13.703670077414936, "lon": 61.49936825345579, "alt_km": 543.8439134376013, "timestamp": "2025-12-08T21:31:05.059353+00:00", "meta": {"OBJECT_NAME": "COSMOS 2251 DEB", "OBJECT_ID": "1993-036DE", "EPOCH": "2025-12-08T15:06:58.938912", "MEAN_MOTION": 15.15195769, "ECCENTRICITY": 0.00332317, "INCLINATION": 73.7727, "RA_OF_ASC_NODE": 57.9906, "ARG_OF_PERICENTER": 190.2001, "MEAN_ANOMALY": 169.8523, "EPHEMERIS_TYPE": 0, "CLASSIFICATION_TYPE": "U", "NORAD_CAT_ID": 33901, "ELEMENT_SET_NO": 999, "REV_AT_EPOCH": 89451, "BSTAR": 0.0038712239, "MEAN_MOTION_DOT": 0.00074425, "MEAN_MOTION_DDOT": 0}, "tle": {"line1": "1 33901U 93036DE  25342.62984883  .00074425  00000+0  38712-2 0  9995", "line2": "2 33901  73.7727  57.9906 0033231 190.2001 169.8523 15.15195769894512"}}, "geometry": {"type": "Point", "coordinates": [61.49936825345579, 13.703670077414936]}}]}